OBJECT_NAME,OBJECT_ID,EPOCH,MEAN_MOTION,ECCENTRICITY,INCLINATION,RA_OF_ASC_NODE,ARG_OF_PERICENTER,MEAN_ANOMALY,EPHEMERIS_TYPE,CLASSIFICATION_TYPE,NORAD_CAT_ID,ELEMENT_SET_NO,REV_AT_EPOCH,BSTAR,MEAN_MOTION_DOT,MEAN_MOTION_DDOT
IRIDIUM 154,2018-061F,2026-07-04T21:11:34.353600,14.34217810,.00021455,86.3946,49.4062,89.4145,270.7297,0,U,43574,999,41594,-.3192758E-5,.11E-6,0
IRIDIUM 163,2018-061G,2026-07-05T00:05:06.417600,14.34217859,.00021416,86.3945,49.2708,84.3753,275.7687,0,U,43575,999,41593,.959375E-6,.22E-6,0
IRIDIUM 156,2018-061H,2026-07-05T01:09:02.347776,14.34218251,.00020205,86.3945,49.2592,89.5018,270.6409,0,U,43576,999,41593,.84015572E-4,.255E-5,0
IRIDIUM 164,2018-061J,2026-07-05T00:41:38.410656,14.34218311,.00022823,86.3945,49.3078,89.6238,270.5220,0,U,43577,999,41597,.22375583E-4,.82E-6,0
IRIDIUM 159,2018-061K,2026-07-04T23:55:58.398816,14.34218352,.00022093,86.3944,49.2576,84.4532,275.6916,0,U,43578,999,41593,.22257056E-4,.82E-6,0
IRIDIUM 180,2019-002A,2026-07-04T17:13:22.825920,14.34219169,.00021979,86.3982,346.2681,89.2159,270.9288,0,U,43922,999,39150,.13018989E-3,.384E-5,0
IRIDIUM 176,2019-002B,2026-07-04T21:34:00.435360,14.72239979,.00023598,86.6102,346.1334,88.2627,271.8860,0,U,43923,999,40185,.16304211E-3,.1052E-4,0
IRIDIUM 168,2019-002C,2026-07-04T17:04:14.629152,14.34217474,.00022067,86.3985,346.3486,90.2493,269.8956,0,U,43924,999,39148,.1723459E-5,.25E-6,0
IRIDIUM 173,2019-002D,2026-07-04T21:47:22.864128,14.34218393,.00021465,86.3982,346.1547,89.6526,270.4916,0,U,43925,999,39149,.30443829E-4,.105E-5,0
IRIDIUM 169,2019-002E,2026-07-04T23:44:05.643744,14.38612720,.00016616,86.4219,17.7488,92.5374,267.6014,0,U,43926,999,39278,.11725078E-3,.379E-5,0
IRIDIUM 172,2019-002F,2026-07-04T16:36:50.858784,14.34218640,.00022053,86.3981,346.2528,89.2359,270.9089,0,U,43927,999,39147,.53186352E-4,.169E-5,0
IRIDIUM 175,2019-002G,2026-07-05T07:08:37.532832,14.43623811,.00046043,86.4517,282.9510,135.3243,224.8330,0,U,43928,999,40159,.12688374E-3,.45E-5,0
IRIDIUM 171,2019-002H,2026-07-04T17:49:54.882912,14.34218309,.0002164,86.3991,346.5396,94.6042,265.5401,0,U,43929,999,39147,.28725913E-4,.1E-5,0
IRIDIUM 170,2019-002J,2026-07-04T23:20:46.346496,14.72240511,.00023901,86.6101,346.1047,84.7212,275.4278,0,U,43930,999,40187,.16168325E-3,.1044E-4,0
IRIDIUM 167,2019-002K,2026-07-04T21:01:42.844512,14.34218174,.00020862,86.3982,346.1982,98.8851,261.2582,0,U,43931,999,39149,.17899935E-4,.7E-6,0
IRIDIUM 181,2023-068S,2026-07-05T03:10:13.028736,14.43308729,.00024917,86.4483,49.2874,86.2952,273.8534,0,U,56726,999,16502,.84986273E-4,.306E-5,0
IRIDIUM 177,2023-068T,2026-07-04T21:36:14.048640,14.80017076,.0002143,86.1979,320.3803,91.6437,268.5029,0,U,56727,999,16898,.17280709E-3,.1333E-4,0
IRIDIUM 174,2023-068U,2026-07-04T21:25:03.888768,14.72248761,.00021668,86.6110,346.2875,80.6842,279.4620,0,U,56728,999,16862,.17080235E-3,.1102E-4,0
IRIDIUM 178,2023-068V,2026-07-05T03:49:47.073504,14.80022926,.00023311,86.6531,17.8479,86.1763,273.9725,0,U,56729,999,16902,.17406838E-3,.1342E-4,0
IRIDIUM 179,2023-068W,2026-07-05T00:27:24.883200,14.80026131,.00022547,86.6766,26.9393,89.6884,270.4596,0,U,56730,999,16900,.16283497E-3,.1257E-4,0
