IRIDIUM 154             
1 43574U 18061F   26185.88303650  .00000011  00000+0 -31928-5 0  9994
2 43574  86.3946  49.4062 0002145  89.4145 270.7297 14.34217810415947
IRIDIUM 163             
1 43575U 18061G   26186.00354650  .00000022  00000+0  95937-6 0  9998
2 43575  86.3945  49.2708 0002141  84.3753 275.7687 14.34217859415937
IRIDIUM 156             
1 43576U 18061H   26186.04794384  .00000255  00000+0  84016-4 0  9997
2 43576  86.3945  49.2592 0002020  89.5018 270.6409 14.34218251415939
IRIDIUM 164             
1 43577U 18061J   26186.02891679  .00000082  00000+0  22376-4 0  9990
2 43577  86.3945  49.3078 0002282  89.6238 270.5220 14.34218311415976
IRIDIUM 159             
1 43578U 18061K   26185.99720369  .00000082  00000+0  22257-4 0  9991
2 43578  86.3944  49.2576 0002209  84.4532 275.6916 14.34218352415936
IRIDIUM 180             
1 43922U 19002A   26185.71762530  .00000384  00000+0  13019-3 0  9996
2 43922  86.3982 346.2681 0002197  89.2159 270.9288 14.34219169391505
IRIDIUM 176             
1 43923U 19002B   26185.89861615  .00001052  00000+0  16304-3 0  9993
2 43923  86.6102 346.1334 0002359  88.2627 271.8860 14.72239979401855
IRIDIUM 168             
1 43924U 19002C   26185.71128043  .00000025  00000+0  17235-5 0  9991
2 43924  86.3985 346.3486 0002206  90.2493 269.8956 14.34217474391481
IRIDIUM 173             
1 43925U 19002D   26185.90790352  .00000105  00000+0  30444-4 0  9996
2 43925  86.3982 346.1547 0002146  89.6526 270.4916 14.34218393391493
IRIDIUM 169             
1 43926U 19002E   26185.98895421  .00000379  00000+0  11725-3 0  9991
2 43926  86.4219  17.7488 0001661  92.5374 267.6014 14.38612720392784
IRIDIUM 172             
1 43927U 19002F   26185.69225531  .00000169  00000+0  53186-4 0  9994
2 43927  86.3981 346.2528 0002205  89.2359 270.9089 14.34218640391479
IRIDIUM 175             
1 43928U 19002G   26186.29765663  .00000450  00000+0  12688-3 0  9991
2 43928  86.4517 282.9510 0004604 135.3243 224.8330 14.43623811401595
IRIDIUM 171             
1 43929U 19002H   26185.74299633  .00000100  00000+0  28726-4 0  9993
2 43929  86.3991 346.5396 0002164  94.6042 265.5401 14.34218309391471
IRIDIUM 170             
1 43930U 19002J   26185.97275864  .00001044  00000+0  16168-3 0  9994
2 43930  86.6101 346.1047 0002390  84.7212 275.4278 14.72240511401878
IRIDIUM 167             
1 43931U 19002K   26185.87619033  .00000070  00000+0  17900-4 0  9998
2 43931  86.3982 346.1982 0002086  98.8851 261.2582 14.34218174391493
IRIDIUM 181             
1 56726U 23068S   26186.13209524  .00000306  00000+0  84986-4 0  9991
2 56726  86.4483  49.2874 0002491  86.2952 273.8534 14.43308729165020
IRIDIUM 177             
1 56727U 23068T   26185.90016260  .00001333  00000+0  17281-3 0  9993
2 56727  86.1979 320.3803 0002143  91.6437 268.5029 14.80017076168986
IRIDIUM 174             
1 56728U 23068U   26185.89240612  .00001102  00000+0  17080-3 0  9993
2 56728  86.6110 346.2875 0002166  80.6842 279.4620 14.72248761168625
IRIDIUM 178             
1 56729U 23068V   26186.15957261  .00001342  00000+0  17407-3 0  9998
2 56729  86.6531  17.8479 0002331  86.1763 273.9725 14.80022926169023
IRIDIUM 179             
1 56730U 23068W   26186.01903800  .00001257  00000+0  16283-3 0  9991
2 56730  86.6766  26.9393 0002254  89.6884 270.4596 14.80026131169005
